QIANFAN-65              
1 62795U 25016L   26007.94924314  .00000170  00000+0  24519-3 0  9995
2 62795  88.9759 100.3517 0012235 264.1650  95.8107 13.50981237 50780
QIANFAN-66              
1 62796U 25016M   26007.90397813  .00000175  00000+0  25257-3 0  9995
2 62796  88.9779 100.3318 0013413 259.7086 100.2553 13.50986124 50825
QIANFAN-67              
1 62797U 25016N   26007.90814637  .00000179  00000+0  25804-3 0  9996
2 62797  88.9769 100.3543 0013280 267.4292  92.5339 13.50990306 50790
QIANFAN-68              
1 62798U 25016P   26007.89983663  .00000175  00000+0  25189-3 0  9993
2 62798  88.9772 100.4013 0013362 265.4858  94.4767 13.50982203 50776
QIANFAN-69              
1 62799U 25016Q   26007.91628940  .00000176  00000+0  25486-3 0  9992
2 62799  88.9751 100.2633 0014090 266.8481  93.1058 13.50982678 50816
QIANFAN-70              
1 62800U 25016R   26007.93284021  .00000161  00000+0  23056-3 0  9990
2 62800  88.9772 100.4056 0013841 255.9438 104.0175 13.50986391 50770
QIANFAN-71              
1 62801U 25016S   26007.92864553  .00000157  00000+0  22442-3 0  9997
2 62801  88.9766 100.3839 0013966 270.7885  89.1665 13.50985840 50776
QIANFAN-72              
1 62802U 25016T   26007.94509493  .00000178  00000+0  25723-3 0  9997
2 62802  88.9756 100.3931 0017162 279.0605  80.8604 13.50985697 50763
